{
 "generated_at": "2026-06-20T08:22:11Z",
 "sources": [
  {
   "name": "CelesTrak",
   "url": "https://celestrak.org/NORAD/elements/",
   "license": "frei verfügbar; Attribution. Ursprünglich USSPACECOM/Space-Track."
  },
  {
   "name": "GCAT (J. McDowell, planet4589.org)",
   "url": "https://planet4589.org/space/gcat/",
   "license": "CC-BY 4.0"
  }
 ],
 "satellites": [
  {
   "norad": 47932,
   "name": "CAS500-1",
   "intl": "2021-022A",
   "group": "resource",
   "gcat": {
    "class": "C",
    "category": "IMG",
    "owner": "KARI",
    "state": "KR"
   },
   "omm": {
    "OBJECT_NAME": "CAS500-1",
    "OBJECT_ID": "2021-022A",
    "EPOCH": "2026-06-19T19:51:53.409600",
    "MEAN_MOTION": 15.20157452,
    "ECCENTRICITY": 0.0003293,
    "INCLINATION": 97.3894,
    "RA_OF_ASC_NODE": 66.0276,
    "ARG_OF_PERICENTER": 286.9396,
    "MEAN_ANOMALY": 73.1478,
    "EPHEMERIS_TYPE": 0,
    "CLASSIFICATION_TYPE": "U",
    "NORAD_CAT_ID": 47932,
    "ELEMENT_SET_NO": 999,
    "REV_AT_EPOCH": 29116,
    "BSTAR": 0.00022207,
    "MEAN_MOTION_DOT": 0.00004737,
    "MEAN_MOTION_DDOT": 0
   }
  },
  {
   "norad": 69013,
   "name": "CAS500-2",
   "intl": "2026-100AK",
   "group": "resource",
   "gcat": {
    "class": "C",
    "category": "TECH",
    "owner": "KAIST",
    "state": "KR"
   },
   "omm": {
    "OBJECT_NAME": "CAS500-2",
    "OBJECT_ID": "2026-100AK",
    "EPOCH": "2026-06-19T18:49:32.310336",
    "MEAN_MOTION": 15.20615764,
    "ECCENTRICITY": 0.0010442,
    "INCLINATION": 97.407,
    "RA_OF_ASC_NODE": 68.5943,
    "ARG_OF_PERICENTER": 26.614,
    "MEAN_ANOMALY": 333.5629,
    "EPHEMERIS_TYPE": 0,
    "CLASSIFICATION_TYPE": "U",
    "NORAD_CAT_ID": 69013,
    "ELEMENT_SET_NO": 999,
    "REV_AT_EPOCH": 720,
    "BSTAR": 0.00024544,
    "MEAN_MOTION_DOT": 0.00005321,
    "MEAN_MOTION_DDOT": 0
   }
  },
  {
   "norad": 66655,
   "name": "CAS500-3",
   "intl": "2025-274F",
   "group": "resource",
   "gcat": {
    "class": "B",
    "category": "IMG",
    "owner": "KAIST",
    "state": "KR"
   },
   "omm": {
    "OBJECT_NAME": "CAS500-3",
    "OBJECT_ID": "2025-274F",
    "EPOCH": "2026-06-19T16:52:01.320384",
    "MEAN_MOTION": 14.88325944,
    "ECCENTRICITY": 0.0006836,
    "INCLINATION": 97.7445,
    "RA_OF_ASC_NODE": 98.6966,
    "ARG_OF_PERICENTER": 103.7774,
    "MEAN_ANOMALY": 256.4204,
    "EPHEMERIS_TYPE": 0,
    "CLASSIFICATION_TYPE": "U",
    "NORAD_CAT_ID": 66655,
    "ELEMENT_SET_NO": 999,
    "REV_AT_EPOCH": 3052,
    "BSTAR": 0.00010618,
    "MEAN_MOTION_DOT": 0.00000929,
    "MEAN_MOTION_DDOT": 0
   }
  },
  {
   "norad": 40336,
   "name": "CBERS 4",
   "intl": "2014-079A",
   "group": "resource",
   "gcat": {
    "class": "C",
    "category": "IMG",
    "owner": "ZZWYZ/INPE",
    "state": "CN"
   },
   "omm": {
    "OBJECT_NAME": "CBERS 4",
    "OBJECT_ID": "2014-079A",
    "EPOCH": "2026-06-19T19:48:25.011072",
    "MEAN_MOTION": 14.355093,
    "ECCENTRICITY": 0.0001744,
    "INCLINATION": 98.3525,
    "RA_OF_ASC_NODE": 227.5743,
    "ARG_OF_PERICENTER": 62.2891,
    "MEAN_ANOMALY": 297.8472,
    "EPHEMERIS_TYPE": 0,
    "CLASSIFICATION_TYPE": "U",
    "NORAD_CAT_ID": 40336,
    "ELEMENT_SET_NO": 999,
    "REV_AT_EPOCH": 60433,
    "BSTAR": 0.0000085748,
    "MEAN_MOTION_DOT": -1.8e-7,
    "MEAN_MOTION_DDOT": 0
   }
  },
  {
   "norad": 64903,
   "name": "CO3D 1",
   "intl": "2025-156E",
   "group": "resource",
   "gcat": {
    "class": "C",
    "category": "SCI",
    "owner": "CNES",
    "state": "F"
   },
   "omm": {
    "OBJECT_NAME": "CO3D 1",
    "OBJECT_ID": "2025-156E",
    "EPOCH": "2026-06-19T18:54:00.116640",
    "MEAN_MOTION": 15.20213537,
    "ECCENTRICITY": 0.0001329,
    "INCLINATION": 97.4325,
    "RA_OF_ASC_NODE": 249.3425,
    "ARG_OF_PERICENTER": 113.244,
    "MEAN_ANOMALY": 246.8935,
    "EPHEMERIS_TYPE": 0,
    "CLASSIFICATION_TYPE": "U",
    "NORAD_CAT_ID": 64903,
    "ELEMENT_SET_NO": 999,
    "REV_AT_EPOCH": 4992,
    "BSTAR": 0.00019419,
    "MEAN_MOTION_DOT": 0.0000414,
    "MEAN_MOTION_DDOT": 0
   }
  },
  {
   "norad": 64902,
   "name": "CO3D 2",
   "intl": "2025-156D",
   "group": "resource",
   "gcat": {
    "class": "C",
    "category": "SCI",
    "owner": "CNES",
    "state": "F"
   },
   "omm": {
    "OBJECT_NAME": "CO3D 2",
    "OBJECT_ID": "2025-156D",
    "EPOCH": "2026-06-19T18:53:46.855968",
    "MEAN_MOTION": 15.20213645,
    "ECCENTRICITY": 0.0001525,
    "INCLINATION": 97.4328,
    "RA_OF_ASC_NODE": 249.3421,
    "ARG_OF_PERICENTER": 107.0982,
    "MEAN_ANOMALY": 253.0421,
    "EPHEMERIS_TYPE": 0,
    "CLASSIFICATION_TYPE": "U",
    "NORAD_CAT_ID": 64902,
    "ELEMENT_SET_NO": 999,
    "REV_AT_EPOCH": 4992,
    "BSTAR": 0.00015508,
    "MEAN_MOTION_DOT": 0.00003292,
    "MEAN_MOTION_DDOT": 0
   }
  },
  {
   "norad": 64900,
   "name": "CO3D 3",
   "intl": "2025-156B",
   "group": "resource",
   "gcat": {
    "class": "C",
    "category": "SCI",
    "owner": "CNES",
    "state": "F"
   },
   "omm": {
    "OBJECT_NAME": "CO3D 3",
    "OBJECT_ID": "2025-156B",
    "EPOCH": "2026-06-19T19:41:34.803744",
    "MEAN_MOTION": 15.20212301,
    "ECCENTRICITY": 0.000161,
    "INCLINATION": 97.4327,
    "RA_OF_ASC_NODE": 249.476,
    "ARG_OF_PERICENTER": 129.137,
    "MEAN_ANOMALY": 231.0008,
    "EPHEMERIS_TYPE": 0,
    "CLASSIFICATION_TYPE": "U",
    "NORAD_CAT_ID": 64900,
    "ELEMENT_SET_NO": 999,
    "REV_AT_EPOCH": 4993,
    "BSTAR": 0.00016427,
    "MEAN_MOTION_DOT": 0.00003491,
    "MEAN_MOTION_DDOT": 0
   }
  },
  {
   "norad": 64901,
   "name": "CO3D 4",
   "intl": "2025-156C",
   "group": "resource",
   "gcat": {
    "class": "C",
    "category": "SCI",
    "owner": "CNES",
    "state": "F"
   },
   "omm": {
    "OBJECT_NAME": "CO3D 4",
    "OBJECT_ID": "2025-156C",
    "EPOCH": "2026-06-19T19:41:47.846688",
    "MEAN_MOTION": 15.20192722,
    "ECCENTRICITY": 0.0000135,
    "INCLINATION": 97.4333,
    "RA_OF_ASC_NODE": 249.4761,
    "ARG_OF_PERICENTER": 299.7743,
    "MEAN_ANOMALY": 60.3479,
    "EPHEMERIS_TYPE": 0,
    "CLASSIFICATION_TYPE": "U",
    "NORAD_CAT_ID": 64901,
    "ELEMENT_SET_NO": 999,
    "REV_AT_EPOCH": 4993,
    "BSTAR": 0.000013113,
    "MEAN_MOTION_DOT": 0.00000216,
    "MEAN_MOTION_DDOT": 0
   }
  },
  {
   "norad": 36744,
   "name": "COMS 1",
   "intl": "2010-032A",
   "group": "weather",
   "gcat": {
    "class": "C",
    "category": "COM/MET",
    "owner": "KARI",
    "state": "KR"
   },
   "omm": {
    "OBJECT_NAME": "COMS 1",
    "OBJECT_ID": "2010-032A",
    "EPOCH": "2026-06-19T19:55:02.604000",
    "MEAN_MOTION": 0.99163136,
    "ECCENTRICITY": 0.0011627,
    "INCLINATION": 4.8128,
    "RA_OF_ASC_NODE": 75.3251,
    "ARG_OF_PERICENTER": 12.2751,
    "MEAN_ANOMALY": 182.1056,
    "EPHEMERIS_TYPE": 0,
    "CLASSIFICATION_TYPE": "U",
    "NORAD_CAT_ID": 36744,
    "ELEMENT_SET_NO": 999,
    "REV_AT_EPOCH": 5111,
    "BSTAR": 0,
    "MEAN_MOTION_DOT": 8.5e-7,
    "MEAN_MOTION_DDOT": 0
   }
  },
  {
   "norad": 31598,
   "name": "COSMO-SKYMED 1",
   "intl": "2007-023A",
   "group": "resource",
   "gcat": {
    "class": "D",
    "category": "IMG-R",
    "owner": "ASI",
    "state": "I"
   },
   "omm": {
    "OBJECT_NAME": "COSMO-SKYMED 1",
    "OBJECT_ID": "2007-023A",
    "EPOCH": "2026-06-19T19:24:13.525632",
    "MEAN_MOTION": 14.97110711,
    "ECCENTRICITY": 0.0001499,
    "INCLINATION": 97.885,
    "RA_OF_ASC_NODE": 2.686,
    "ARG_OF_PERICENTER": 98.2997,
    "MEAN_ANOMALY": 261.8394,
    "EPHEMERIS_TYPE": 0,
    "CLASSIFICATION_TYPE": "U",
    "NORAD_CAT_ID": 31598,
    "ELEMENT_SET_NO": 999,
    "REV_AT_EPOCH": 3018,
    "BSTAR": 0.0002006,
    "MEAN_MOTION_DOT": 0.00002255,
    "MEAN_MOTION_DDOT": 0
   }
  }
 ]
}
